OBJECT_NAME,OBJECT_ID,EPOCH,MEAN_MOTION,ECCENTRICITY,INCLINATION,RA_OF_ASC_NODE,ARG_OF_PERICENTER,MEAN_ANOMALY,EPHEMERIS_TYPE,CLASSIFICATION_TYPE,NORAD_CAT_ID,ELEMENT_SET_NO,REV_AT_EPOCH,BSTAR,MEAN_MOTION_DOT,MEAN_MOTION_DDOT
OSCAR 7 (AO-7),1974-089B,2026-06-13T22:51:42.575904,12.53698061,.0012536,101.9901,178.1655,136.1273,292.1126,0,U,7530,999,36011,.1123E-3,-.28E-6,0
PHASE 3B (AO-10),1983-058B,2026-06-13T11:38:15.572544,2.05869395,.60121148,25.9094,220.1781,114.6492,317.6358,0,U,14129,999,29541,0,.72E-6,0
UOSAT 2 (UO-11),1984-021B,2026-06-14T04:49:22.799712,14.90776632,.0007353,97.8057,130.8090,182.6210,177.4971,0,U,14781,999,25668,.12366E-3,.116E-4,0
LUSAT (LO-19),1990-005G,2026-06-13T23:20:32.742816,14.34122315,.0010942,98.8851,186.6896,210.9813,149.0726,0,U,20442,999,90193,.56016E-4,.11E-5,0
EYESAT A (AO-27),1993-061C,2026-06-14T04:52:12.298368,14.30941512,.000951,98.6880,232.6175,107.4097,252.8126,0,U,22825,999,70657,.50393E-4,.88E-6,0
ITAMSAT (IO-26),1993-061D,2026-06-14T04:23:50.455104,14.31368337,.0010095,98.6828,232.5150,92.8223,267.4115,0,U,22826,999,70688,.48499E-4,.84E-6,0
RADIO ROSTO (RS15),1994-085A,2026-06-14T02:24:47.697120,11.27583525,.0155856,64.8180,308.2082,4.4474,355.7795,0,U,23439,999,29555,-.18898E-3,-.49E-6,0
JAS-2 (FO-29),1996-046B,2026-06-14T03:09:58.644000,13.53274148,.0350867,98.5241,14.4226,104.3391,259.6965,0,U,24278,999,47275,.52658E-4,.2E-6,0
TECHSAT 1B (GO-32),1998-043D,2026-06-13T23:22:07.457088,14.24427891,.0000887,99.0066,157.6512,169.9985,190.1211,0,U,25397,999,45087,.43938E-4,.55E-6,0
ISS (ZARYA),1998-067A,2026-06-14T02:14:17.517120,15.49219019,.0004936,51.6335,315.4063,183.6835,176.4118,0,U,25544,999,57127,.16324E-3,.8623E-4,0
PCSAT (NO-44),2001-043C,2026-06-13T22:42:51.219360,14.31955079,.0006075,67.0507,252.6539,264.5916,95.4493,0,U,26931,999,28998,.70015E-4,.105E-5,0
SAUDISAT 1C (SO-50),2002-058C,2026-06-14T04:31:06.464064,14.83041063,.0075328,64.5509,138.2640,263.0278,96.2256,0,U,27607,999,26401,.12736E-3,.933E-5,0
CUTE-1 (CO-55),2003-031E,2026-06-14T00:23:46.396608,14.24333986,.0009316,98.6736,173.6152,187.2201,172.8845,0,U,27844,999,19122,.13536E-3,.269E-5,0
CUBESAT XI-IV (CO-57),2003-031J,2026-06-14T00:04:51.738240,14.23619332,.0008816,98.6766,173.3175,206.8109,153.2615,0,U,27848,999,19092,.11831E-3,.226E-5,0
MOZHAETS 4 (RS22),2003-042A,2026-06-14T05:29:41.267904,14.73462513,.0009979,98.3465,349.5045,280.5424,165.9792,0,U,27939,999,21511,.1539E-3,.946E-5,0
CUBESAT XI-V,2005-043F,2026-06-13T09:27:00.601344,14.72622172,.0013416,98.2979,319.9359,213.2696,146.7669,0,U,28895,999,10119,.21486221E-3,.1317E-4,0
CUTE-1.7+APD II (CO-65),2008-021C,2026-06-14T03:11:38.882688,15.09428458,.0010159,97.8270,146.4881,48.7687,311.4415,0,U,32785,999,98473,.32589E-3,.5152E-4,0
SEEDS II (CO-66),2008-021J,2026-06-13T22:28:38.111808,15.32650243,.0001549,97.7509,162.6789,14.7739,345.3547,0,U,32791,999,98679,.59582E-3,.18728E-3,0
YUBILEINY (RS30),2008-025A,2026-06-14T04:49:48.254016,12.43179508,.001898,82.5044,357.2985,320.6774,39.2927,0,U,32953,999,81932,.71742E-3,.11E-5,0
KKS-1 (KISEKI),2009-002H,2026-06-14T03:40:31.954368,14.83117103,.0006679,98.1192,87.5473,307.6212,52.4394,0,U,33499,999,93574,.15747E-3,.1228E-4,0
SWISSCUBE,2009-051B,2026-06-13T16:18:17.234496,14.62475781,.00057556,98.4039,72.5065,215.4372,144.6447,0,U,35932,999,88864,.19469858E-3,.937E-5,0
BEESAT-1,2009-051C,2026-06-13T16:29:14.836128,14.61715545,.00040547,98.3968,72.1570,230.6846,129.3995,0,U,35933,999,88867,.1669981E-3,.783E-5,0
ITUPSAT1,2009-051E,2026-06-13T16:11:43.005120,14.60435999,.00061568,98.4053,71.3404,247.1048,112.9502,0,U,35935,999,88822,.15576572E-3,.706E-5,0
XIWANG-1 (HOPE-1),2009-072B,2026-06-14T03:04:11.978688,13.16440351,.0006831,100.4021,119.0087,239.2199,120.8241,0,U,36122,999,79260,.39407E-3,.106E-5,0
O/OREOS (USA 219),2010-062C,2026-06-14T04:22:48.782784,14.93733212,.0012472,71.9713,87.1452,69.6515,290.5994,0,U,37224,999,11619,.21739E-3,.2244E-4,0
JUGNU,2011-058B,2026-06-14T03:21:29.570976,14.13775965,.0018614,19.9620,326.9419,42.7337,118.6103,0,U,37839,999,75859,.70161E-4,.401E-5,0
SRMSAT,2011-058D,2026-06-14T02:32:35.699136,14.11574986,.0011859,19.9719,78.1172,169.7435,229.6321,0,U,37841,999,75738,.51961E-4,.361E-5,0
STRAND-1,2013-009E,2026-06-13T23:49:24.788928,14.37161671,.0007584,98.3921,345.3057,236.1034,123.9432,0,U,39090,999,69660,.10072E-3,.257E-5,0
ZACUBE-1 (TSHEPISOSAT),2013-066B,2026-06-14T03:23:15.859392,15.01173415,.0040472,97.8083,127.4617,258.3287,101.3393,0,U,39417,999,68027,.2755E-3,.3529E-4,0
GOMX-1,2013-066Q,2026-06-14T04:33:22.920768,14.69450244,.0130187,97.6484,5.8423,87.0635,274.5462,0,U,39430,999,66947,.30268E-3,.1992E-4,0
